STARLINK-35355          
1 66448U 25259AC  25338.58334491 -.00092136  00000+0 -15834-2 0  9994
2 66448  43.0003  94.9258 0001487 268.5818 174.7630 15.50575925  4966
STARLINK-34720          
1 66449U 25259AD  25338.58334491 -.00086744  00000+0 -14895-2 0  9999
2 66449  43.0003  94.9206 0001477 261.2794 183.9799 15.50573163  4861
STARLINK-35334          
1 66450U 25259AE  25338.58334491 -.00079376  00000+0 -13606-2 0  9993
2 66450  43.0002  94.9145 0001628 280.9011 166.2615 15.50585412  4964
VIASAT-3 F2             
1 66454U 25261A   25338.04684933 -.00000056  00000+0  00000+0 0  9999
2 66454   5.5724 293.1352 2342139 184.2254 209.6829  2.28102609   450
ATLAS 5 CENTAUR R/B     
1 66455U 25261B   25338.53670856 -.00000059  00000+0  00000+0 0  9996
2 66455   6.1565 292.4364 2329609 184.8350 244.0400  2.28259385   469
STARLINK-35643          
1 66456U 25262A   25338.58334491 -.02180067  00000+0 -36155-1 0  9998
2 66456  42.9996 118.8474 0001348 285.3682 192.8135 15.54713577  4324
STARLINK-35466          
1 66457U 25262B   25338.58334491 -.02182385  00000+0 -36199-1 0  9992
2 66457  42.9994 118.8375 0001187 284.7277 197.2890 15.54714959  4329
STARLINK-35684          
1 66458U 25262C   25338.58334491 -.02181773  00000+0 -36187-1 0  9990
2 66458  42.9995 118.8421 0001223 284.1210 195.9776 15.54715199  4320
STARLINK-35449          
1 66459U 25262D   25338.58334491 -.02175321  00000+0 -36070-1 0  9994
2 66459  42.9993 118.8325 0001135 286.1541 197.7764 15.54712675  4326
STARLINK-35424          
1 66460U 25262E   25338.58334491 -.02181235  00000+0 -36175-1 0  9993
2 66460  42.9989 118.8278 0001302 289.4379 196.4088 15.54715565  4327
STARLINK-35132          
1 66461U 25262F   25338.58334491 -.02184457  00000+0 -36234-1 0  9999
2 66461  42.9988 118.8229 0001187 280.2173 207.5477 15.54717858  4328
STARLINK-35499          
1 66462U 25262G   25338.58334491 -.02174403  00000+0 -36052-1 0  9998
2 66462  42.9990 118.8176 0001220 281.8782 207.8022 15.54712969  4321
